     2              NAVIGATION DATA                         RINEX VERSION / TYPE
CCRINEXN V1.6.0 UX  CDDIS               13-OCT-19 12:53     PGM / RUN BY / DATE 
IGS BROADCAST EPHEMERIS FILE                                COMMENT             
    0.1118D-07  0.0000D+00 -0.5960D-07  0.0000D+00          ION ALPHA           
    0.9011D+05  0.0000D+00 -0.1966D+06  0.0000D+00          ION BETA            
    0.186264514923D-08 0.532907051820D-14   233472     2075 DELTA-UTC: A0,A1,T,W
    18                                                      LEAP SECONDS        
                                                            END OF HEADER       
21 19 10 13 16  0  0.0-0.103028025478D-03 0.613908923697D-11 0.000000000000D+00
    0.460000000000D+02 0.730000000000D+02 0.477984195675D-08 0.218642320112D+01
    0.360421836376D-05 0.244961420540D-01 0.752322375774D-05 0.515363958168D+04
    0.576000000000D+05 0.379979610443D-06 0.731948811440D+00-0.353902578354D-07
    0.950191986350D+00 0.224687500000D+03-0.140522969981D+01-0.783532637279D-08
    0.461804950315D-09 0.100000000000D+01 0.207500000000D+04 0.000000000000D+00
    0.200000000000D+01 0.000000000000D+00-0.102445483208D-07 0.460000000000D+02
    0.510980000000D+05 0.400000000000D+01 0.000000000000D+00 0.000000000000D+00
22 19 10 13 16  0  0.0-0.763575080782D-03-0.318323145621D-11 0.000000000000D+00
    0.650000000000D+02-0.343125000000D+02 0.587488756979D-08-0.982297512748D+00
   -0.176951289177D-05 0.687773758545D-02 0.365823507309D-05 0.515367401314D+04
    0.576000000000D+05-0.137835741043D-06 0.176395517895D+01-0.353902578354D-07
    0.928171132545D+00 0.291718750000D+03-0.127740059976D+01-0.899430322026D-08
   -0.206794328100D-09 0.100000000000D+01 0.207500000000D+04 0.000000000000D+00
    0.200000000000D+01 0.000000000000D+00-0.181607902050D-07 0.650000000000D+02
    0.504180000000D+05 0.400000000000D+01 0.000000000000D+00 0.000000000000D+00
23 19 10 13 16  0  0.0-0.161647796631D-03 0.216004991671D-11 0.000000000000D+00
    0.470000000000D+02-0.181250000000D+02 0.459912014324D-08-0.146986394555D+01
   -0.101327896118D-05 0.132354453672D-01 0.121332705021D-04 0.515375173378D+04
    0.576000000000D+05 0.316649675369D-06 0.286741297288D+01 0.186264514923D-08
    0.943837839709D+00 0.132437500000D+03-0.222577384686D+01-0.791818696713D-08
   -0.329656588663D-09 0.100000000000D+01 0.207500000000D+04 0.000000000000D+00
    0.200000000000D+01 0.000000000000D+00-0.200234353542D-07 0.470000000000D+02
    0.504180000000D+05 0.400000000000D+01 0.000000000000D+00 0.000000000000D+00
24 19 10 13 16  0  0.0-0.340212136507D-05-0.568434188608D-12 0.000000000000D+00
    0.740000000000D+02 0.935000000000D+02 0.498485049618D-08-0.197172637224D+01
    0.484660267830D-05 0.881717854645D-02 0.671483576298D-05 0.515367506981D+04
    0.576000000000D+05-0.931322574616D-08-0.240277608984D+01-0.104308128357D-06
    0.937891406873D+00 0.239250000000D+03 0.611109475460D+00-0.826713007344D-08
    0.429303596504D-09 0.100000000000D+01 0.207500000000D+04 0.000000000000D+00
    0.200000000000D+01 0.000000000000D+00 0.279396772385D-08 0.740000000000D+02
    0.572460000000D+05 0.400000000000D+01 0.000000000000D+00 0.000000000000D+00
25 19 10 13 16  0  0.0-0.152569264173D-04-0.102318153950D-11 0.000000000000D+00
    0.610000000000D+02-0.547812500000D+02 0.452340270359D-08 0.235240414113D+01
   -0.292249023914D-05 0.846568238921D-02 0.345893204212D-05 0.515364462280D+04
    0.576000000000D+05-0.279396772385D-07-0.129741672037D+01-0.167638063431D-06
    0.968191698213D+00 0.316656250000D+03 0.892068293676D+00-0.822712840721D-08
   -0.221794952936D-09 0.100000000000D+01 0.207500000000D+04 0.000000000000D+00
    0.200000000000D+01 0.000000000000D+00 0.558793544769D-08 0.610000000000D+02
    0.504180000000D+05 0.400000000000D+01 0.000000000000D+00 0.000000000000D+00
26 19 10 13 16  0  0.0 0.606491230428D-04 0.864019966684D-11 0.000000000000D+00
    0.480000000000D+02-0.511562500000D+02 0.510199837933D-08 0.183857231182D+01
   -0.261515378952D-05 0.400844088290D-02 0.296905636787D-05 0.515367894936D+04
    0.576000000000D+05-0.279396772385D-07-0.132855868554D+01 0.596046447754D-07
    0.949394439986D+00 0.316750000000D+03 0.119384540022D+00-0.860607318742D-08
   -0.288583462682D-09 0.100000000000D+01 0.207500000000D+04 0.000000000000D+00
    0.200000000000D+01 0.000000000000D+00 0.745058059692D-08 0.480000000000D+02
    0.504300000000D+05 0.000000000000D+00 0.000000000000D+00 0.000000000000D+00
28 19 10 13 16  0  0.0 0.759162008762D-03-0.136424205266D-11 0.000000000000D+00
    0.710000000000D+02-0.592187500000D+02 0.445161399902D-08 0.727479005689D+00
   -0.330433249474D-05 0.191221215064D-01 0.221282243729D-05 0.515370108223D+04
    0.576000000000D+05-0.176951289177D-06-0.120853264716D+01-0.206753611565D-06
    0.980129544227D+00 0.309000000000D+03-0.145219445965D+01-0.850821154402D-08
   -0.369301097159D-09 0.100000000000D+01 0.207500000000D+04 0.000000000000D+00
    0.200000000000D+01 0.000000000000D+00-0.111758708954D-07 0.710000000000D+02
    0.511260000000D+05 0.400000000000D+01 0.000000000000D+00 0.000000000000D+00
29 19 10 13 16  0  0.0 0.723171979189D-04-0.102318153950D-10 0.000000000000D+00
    0.800000000000D+01-0.301875000000D+02 0.365586656723D-08 0.119551735467D+00
   -0.173784792423D-05 0.113969435915D-02 0.120028853416D-04 0.515368402862D+04
    0.576000000000D+05 0.745058059692D-08-0.186488334845D+00-0.745058059692D-08
    0.986125648983D+00 0.158812500000D+03 0.204661075099D+01-0.756174354840D-08
   -0.607168148133D-11 0.100000000000D+01 0.207500000000D+04 0.000000000000D+00
    0.200000000000D+01 0.000000000000D+00-0.977888703346D-08 0.800000000000D+01
    0.530220000000D+05 0.400000000000D+01 0.000000000000D+00 0.000000000000D+00
30 19 10 13 16  0  0.0-0.607930123806D-04-0.818545231596D-11 0.000000000000D+00
    0.560000000000D+02 0.900000000000D+02 0.507128266785D-08-0.295264855474D+01
    0.458955764771D-05 0.418882048689D-02 0.631622970104D-05 0.515374422455D+04
    0.576000000000D+05-0.689178705216D-07-0.230836547200D+01-0.353902578354D-07
    0.939998648203D+00 0.246218750000D+03-0.290003117161D+01-0.838534928346D-08
    0.373229832235D-09 0.100000000000D+01 0.207500000000D+04 0.000000000000D+00
    0.200000000000D+01 0.000000000000D+00 0.372529029846D-08 0.560000000000D+02
    0.504180000000D+05 0.400000000000D+01 0.000000000000D+00 0.000000000000D+00
31 19 10 13 16  0  0.0 0.393111258745D-05-0.261479726760D-11 0.000000000000D+00
    0.480000000000D+02 0.991875000000D+02 0.463090718159D-08 0.308088484487D+01
    0.503845512867D-05 0.942184869200D-02 0.654719769955D-05 0.515371361542D+04
    0.576000000000D+05-0.633299350738D-07-0.231982651790D+01 0.000000000000D+00
    0.959112413145D+00 0.255062500000D+03 0.399119966663D-01-0.815783980677D-08
    0.402873924173D-09 0.100000000000D+01 0.207500000000D+04 0.000000000000D+00
    0.200000000000D+01 0.000000000000D+00-0.135041773319D-07 0.480000000000D+02
    0.504210000000D+05 0.400000000000D+01 0.000000000000D+00 0.000000000000D+00
32 19 10 13 16  0  0.0 0.900677405298D-04 0.129602995003D-10 0.000000000000D+00
    0.790000000000D+02-0.133125000000D+02 0.440054044303D-08 0.689987572295D+00
   -0.672414898872D-06 0.324460316915D-02 0.124331563711D-04 0.515364622498D+04
    0.576000000000D+05 0.242143869400D-07 0.288118670794D+01 0.372529029846D-07
    0.957242290355D+00 0.138250000000D+03-0.252160702948D+01-0.797783230874D-08
   -0.375015620906D-09 0.100000000000D+01 0.207500000000D+04 0.000000000000D+00
    0.200000000000D+01 0.000000000000D+00 0.465661287308D-09 0.790000000000D+02
    0.504000000000D+05 0.000000000000D+00 0.000000000000D+00 0.000000000000D+00
 2 19 10 13 18  0  0.0-0.325149856508D-03-0.795807864051D-11 0.000000000000D+00
    0.360000000000D+02 0.665937500000D+02 0.485770234280D-08-0.914940605303D+00
    0.378116965294D-05 0.192086417228D-01 0.854022800922D-05 0.515355148125D+04
    0.648000000000D+05-0.258907675743D-06 0.728314775177D+00 0.283122062683D-06
    0.956367743298D+00 0.220437500000D+03-0.170860574364D+01-0.845178062202D-08
    0.595739100639D-09 0.100000000000D+01 0.207500000000D+04 0.000000000000D+00
    0.200000000000D+01 0.000000000000D+00-0.204890966415D-07 0.360000000000D+02
    0.576300000000D+05 0.400000000000D+01 0.000000000000D+00 0.000000000000D+00
 5 19 10 13 18  0  0.0-0.229664146900D-05-0.341060513165D-12 0.000000000000D+00
    0.100000000000D+02-0.367812500000D+02 0.535343727786D-08 0.165017926496D+01
   -0.187195837498D-05 0.590633205138D-02 0.404380261898D-05 0.515377317619D+04
    0.648000000000D+05-0.130385160446D-06 0.181330941797D+01 0.391155481338D-07
    0.950392476347D+00 0.298968750000D+03 0.802288578128D+00-0.858607193007D-08
   -0.233581158164D-09 0.100000000000D+01 0.207500000000D+04 0.000000000000D+00
    0.200000000000D+01 0.000000000000D+00-0.111758708954D-07 0.100000000000D+02
    0.576300000000D+05 0.400000000000D+01 0.000000000000D+00 0.000000000000D+00
 6 19 10 13 18  0  0.0-0.892393290997D-04-0.128466126625D-10 0.000000000000D+00
    0.130000000000D+02 0.645000000000D+02 0.435053836024D-08-0.832168603825D+00
    0.320747494698D-05 0.142131280154D-02 0.801496207714D-05 0.515367196846D+04
    0.648000000000D+05-0.130385160446D-07 0.791643218775D+00-0.540167093277D-07
    0.976857381231D+00 0.235875000000D+03-0.117822223974D+01-0.799497587998D-08
    0.596810573842D-09 0.100000000000D+01 0.207500000000D+04 0.000000000000D+00
    0.200000000000D+01 0.000000000000D+00 0.419095158577D-08 0.130000000000D+02
    0.576300000000D+05 0.400000000000D+01 0.000000000000D+00 0.000000000000D+00
